SAUDISAT 5A             
1 43831U 18102A   26166.52768492  .00005072  00000+0  18789-3 0  9994
2 43831  97.3071 228.1404 0010931 134.0664 226.1478 15.28033486415423
SAUDISAT 5B             
1 43833U 18102C   26166.54680800  .00004620  00000+0  17003-3 0  9990
2 43833  97.3179 231.2258 0011604 136.3984 223.8175 15.28290932415546
GAOFEN-10R              
1 44622U 19066A   26166.53453894  .00000972  00000+0  12613-3 0  9995
2 44622  98.0497 120.1017 0006565 132.0395 228.1377 14.83057469362136
CARTOSAT-3              
1 44804U 19081A   26166.51076076  .00003775  00000+0  18185-3 0  9999
2 44804  97.4312 228.4044 0013035 154.1193 206.0696 15.19272871363215
GAOFEN-12 01            
1 44819U 19082A   26166.52519453  .00000328  00000+0  49501-4 0  9996
2 44819  97.8100 172.9485 0002321  72.4999 287.6467 14.80457349353845
CSG-1                   
1 44873U 19092A   26166.49860350  .00000349  00000+0  50402-4 0  9993
2 44873  97.8887 350.1256 0001451  89.5520 270.5860 14.82151852351225
NEMO-HD                 
1 46277U 20061F   26166.51013551  .00009196  00000+0  19979-3 0  9999
2 46277  97.1923 228.4798 0002372  83.0920 277.0599 15.44564194321722
SENTINEL-6A             
1 46984U 20086A   26166.28973699 -.00000070  00000+0 -39192-4 0  9997
2 46984  66.0393 138.9934 0007943 270.2644  89.7461 12.80929979260082
CAS500-1                
1 47932U 21022A   26166.54906632  .00005076  00000+0  23748-3 0  9992
2 47932  97.3908  61.8361 0003855 310.4055  49.6844 15.20192305290517
GAOFEN-12 02            
1 48079U 21026A   26166.53607495  .00000303  00000+0  46712-4 0  9998
2 48079  97.9928 164.7234 0003583 228.6353 131.4551 14.80295012281518
PLEIADES NEO 3          
1 48268U 21034A   26166.49730390  .00001185  00000+0  15717-3 0  9992
2 48268  97.8938 241.2883 0001368  88.2046 271.9323 14.81671143277401
PLEIADES NEO 4          
1 49070U 21073E   26166.32846206  .00001450  00000+0  19081-3 0  9996
2 49070  97.8943 241.1176 0001374  86.0176 274.1194 14.81674262261094
LANDSAT 9               
1 49260U 21088A   26166.47976660  .00000298  00000+0  76246-4 0  9993
2 49260  98.2281 236.6779 0001388  85.5802 274.5555 14.57095945250752
CSG-2                   
1 51444U 22008A   26166.53234475  .00000479  00000+0  66742-4 0  9992
2 51444  97.8877 350.1539 0001411  85.4525 274.6849 14.82155403236349
GAOFEN-12 03            
1 52912U 22069A   26166.56569503  .00000366  00000+0  55104-4 0  9991
2 52912  97.8290  54.4772 0001958 103.8225 256.3205 14.80030631214375
SWOT                    
1 54754U 22173A   26166.48771358  .00000040  00000+0  28944-4 0  9998
2 54754  77.6107  37.6045 0000239  89.9118 270.2061 14.00169445178918
GAOFEN-12 04            
1 57654U 23123A   26166.51498858  .00000841  00000+0  11745-3 0  9990
2 57654  97.9126  84.5567 0001795  83.9185 276.2231 14.80225788152381
PARS 1                  
1 59065U 24039Q   26166.50187208  .00009279  00000+0  19370-3 0  9994
2 59065  97.4818 147.3685 0011433 116.6753 243.5668 15.45693778128380
RESURS-P 4              
1 59371U 24061A   26166.49976359  .00002735  00000+0  90645-4 0  9995
2 59371  97.2755 114.4279 0002049 128.4427 231.6999 15.32122588123500
LEGION 1                
1 59625U 24081A   26166.44564966  .00003305  00000+0  17221-3 0  9993
2 59625  97.5022 244.3209 0009687  23.7354 336.4324 15.16656501117271
LEGION 2                
1 59626U 24081B   26166.47560485  .00003199  00000+0  16682-3 0  9990
2 59626  97.5022 244.4481 0010935 349.9137  10.1874 15.16635843117288
ALOS-4 (DAICHI-4)       
1 60182U 24123A   26166.53532561  .00001257  00000+0  17518-3 0  9999
2 60182  97.9245 263.7323 0001583  97.8401 262.2990 14.79473924105632
LEGION 3                
1 60452U 24146A   26166.48361657  .00002914  00000+0  16251-3 0  9998
2 60452  45.0024  39.6918 0007430 160.3661 199.7505 15.16026946101768
LEGION 4                
1 60453U 24146B   26166.35490706  .00003101  00000+0  17192-3 0  9997
2 60453  44.9999 132.2917 0013909 298.8339  61.1143 15.16017143100593
SENTINEL-2C             
1 60989U 24157A   26166.49422376  .00000090  00000+0  50805-4 0  9999
2 60989  98.5692 241.3001 0001055  81.2138 278.9165 14.30817360 92741
IONOSFERA-M 1           
1 61735U 24199A   26166.50596956  .00000054  00000+0  43731-4 0  9993
2 61735  98.7174  39.6959 0001906 112.7212 247.4168 14.22754002127462
IONOSFERA-M 2           
1 61736U 24199B   26166.54026876  .00000043  00000+0  38921-4 0  9990
2 61736  98.7173  39.6405 0001116  39.9855 320.1405 14.22757221130591
PRSC-EO1                
1 62725U 25012A   26166.27955253  .00006175  00000+0  30911-3 0  9996
2 62725  97.4230 238.7768 0004318 259.0551 101.0197 15.17748554 77902
BIOMASS                 
1 63772U 25090A   26166.53348829  .00000861  00000+0  16024-3 0  9994
2 63772  98.0740 353.8747 0001333  94.3227 265.8130 14.67535867 60440
GOSAT-GW (IBUKI GW)     
1 64694U 25141A   26166.55379385  .00000644  00000+0  12200-3 0  9999
2 64694  98.0569 103.8974 0001418  83.7805 276.3561 14.67553771 51603
IONOSFERA-M 3           
1 64876U 25155A   26166.48610170  .00000030  00000+0  33463-4 0  9992
2 64876  98.6024 128.4339 0000904 160.2363 199.8850 14.21486172 46169
