OBJECT_NAME,OBJECT_ID,EPOCH,MEAN_MOTION,ECCENTRICITY,INCLINATION,RA_OF_ASC_NODE,ARG_OF_PERICENTER,MEAN_ANOMALY,EPHEMERIS_TYPE,CLASSIFICATION_TYPE,NORAD_CAT_ID,ELEMENT_SET_NO,REV_AT_EPOCH,BSTAR,MEAN_MOTION_DOT,MEAN_MOTION_DDOT
SAUDISAT 5A,2018-102A,2026-06-15T12:39:51.977088,15.28033486,.0010931,97.3071,228.1404,134.0664,226.1478,0,U,43831,999,41542,.18789E-3,.5072E-4,0
SAUDISAT 5B,2018-102C,2026-06-15T13:07:24.211200,15.28290932,.0011604,97.3179,231.2258,136.3984,223.8175,0,U,43833,999,41554,.17003E-3,.462E-4,0
GAOFEN-10R,2019-066A,2026-06-15T12:49:44.164416,14.83057469,.0006565,98.0497,120.1017,132.0395,228.1377,0,U,44622,999,36213,.12613E-3,.972E-5,0
CARTOSAT-3,2019-081A,2026-06-15T12:15:29.729664,15.19272871,.0013035,97.4312,228.4044,154.1193,206.0696,0,U,44804,999,36321,.18185E-3,.3775E-4,0
GAOFEN-12 01,2019-082A,2026-06-15T12:36:16.807392,14.80457349,.0002321,97.8100,172.9485,72.4999,287.6467,0,U,44819,999,35384,.49501E-4,.328E-5,0
CSG-1,2019-092A,2026-06-15T11:57:59.342400,14.82151852,.0001451,97.8887,350.1256,89.5520,270.5860,0,U,44873,999,35122,.50402E-4,.349E-5,0
NEMO-HD,2020-061F,2026-06-15T12:14:35.708064,15.44564194,.0002372,97.1923,228.4798,83.0920,277.0599,0,U,46277,999,32172,.19979E-3,.9196E-4,0
SENTINEL-6A,2020-086A,2026-06-15T06:57:13.275936,12.80929979,.0007943,66.0393,138.9934,270.2644,89.7461,0,U,46984,999,26008,-.39192E-4,-.7E-6,0
CAS500-1,2021-022A,2026-06-15T13:10:39.330048,15.20192305,.0003855,97.3908,61.8361,310.4055,49.6844,0,U,47932,999,29051,.23748E-3,.5076E-4,0
GAOFEN-12 02,2021-026A,2026-06-15T12:51:56.875680,14.80295012,.0003583,97.9928,164.7234,228.6353,131.4551,0,U,48079,999,28151,.46712E-4,.303E-5,0
PLEIADES NEO 3,2021-034A,2026-06-15T11:56:07.056960,14.81671143,.0001368,97.8938,241.2883,88.2046,271.9323,0,U,48268,999,27740,.15717E-3,.1185E-4,0
PLEIADES NEO 4,2021-073E,2026-06-15T07:52:59.121984,14.81674262,.0001374,97.8943,241.1176,86.0176,274.1194,0,U,49070,999,26109,.19081E-3,.145E-4,0
LANDSAT 9,2021-088A,2026-06-15T11:30:51.834240,14.57095945,.0001388,98.2281,236.6779,85.5802,274.5555,0,U,49260,999,25075,.76246E-4,.298E-5,0
CSG-2,2022-008A,2026-06-15T12:46:34.586400,14.82155403,.0001411,97.8877,350.1539,85.4525,274.6849,0,U,51444,999,23634,.66742E-4,.479E-5,0
GAOFEN-12 03,2022-069A,2026-06-15T13:34:36.050592,14.80030631,.0001958,97.8290,54.4772,103.8225,256.3205,0,U,52912,999,21437,.55104E-4,.366E-5,0
SWOT,2022-173A,2026-06-15T11:42:18.453312,14.00169445,.0000239,77.6107,37.6045,89.9118,270.2061,0,U,54754,999,17891,.28944E-4,.4E-6,0
GAOFEN-12 04,2023-123A,2026-06-15T12:21:35.013312,14.80225788,.0001795,97.9126,84.5567,83.9185,276.2231,0,U,57654,999,15238,.11745E-3,.841E-5,0
PARS 1,2024-039Q,2026-06-15T12:02:41.747712,15.45693778,.0011433,97.4818,147.3685,116.6753,243.5668,0,U,59065,999,12838,.1937E-3,.9279E-4,0
RESURS-P 4,2024-061A,2026-06-15T11:59:39.574176,15.32122588,.0002049,97.2755,114.4279,128.4427,231.6999,0,U,59371,999,12350,.90645E-4,.2735E-4,0
LEGION 1,2024-081A,2026-06-15T10:41:44.130624,15.16656501,.0009687,97.5022,244.3209,23.7354,336.4324,0,U,59625,999,11727,.17221E-3,.3305E-4,0
LEGION 2,2024-081B,2026-06-15T11:24:52.259040,15.16635843,.0010935,97.5022,244.4481,349.9137,10.1874,0,U,59626,999,11728,.16682E-3,.3199E-4,0
ALOS-4 (DAICHI-4),2024-123A,2026-06-15T12:50:52.132704,14.79473924,.0001583,97.9245,263.7323,97.8401,262.2990,0,U,60182,999,10563,.17518E-3,.1257E-4,0
LEGION 3,2024-146A,2026-06-15T11:36:24.471648,15.16026946,.000743,45.0024,39.6918,160.3661,199.7505,0,U,60452,999,10176,.16251E-3,.2914E-4,0
LEGION 4,2024-146B,2026-06-15T08:31:03.969984,15.16017143,.0013909,44.9999,132.2917,298.8339,61.1143,0,U,60453,999,10059,.17192E-3,.3101E-4,0
SENTINEL-2C,2024-157A,2026-06-15T11:51:40.932864,14.30817360,.0001055,98.5692,241.3001,81.2138,278.9165,0,U,60989,999,9274,.50805E-4,.9E-6,0
IONOSFERA-M 1,2024-199A,2026-06-15T12:08:35.769984,14.22754002,.0001906,98.7174,39.6959,112.7212,247.4168,0,U,61735,999,12746,.43731E-4,.54E-6,0
IONOSFERA-M 2,2024-199B,2026-06-15T12:57:59.220864,14.22757221,.0001116,98.7173,39.6405,39.9855,320.1405,0,U,61736,999,13059,.38921E-4,.43E-6,0
PRSC-EO1,2025-012A,2026-06-15T06:42:33.338592,15.17748554,.0004318,97.4230,238.7768,259.0551,101.0197,0,U,62725,999,7790,.30911E-3,.6175E-4,0
BIOMASS,2025-090A,2026-06-15T12:48:13.388256,14.67535867,.0001333,98.0740,353.8747,94.3227,265.8130,0,U,63772,999,6044,.16024E-3,.861E-5,0
GOSAT-GW (IBUKI GW),2025-141A,2026-06-15T13:17:27.788640,14.67553771,.0001418,98.0569,103.8974,83.7805,276.3561,0,U,64694,999,5160,.122E-3,.644E-5,0
IONOSFERA-M 3,2025-155A,2026-06-15T11:39:59.186880,14.21486172,.0000904,98.6024,128.4339,160.2363,199.8850,0,U,64876,999,4616,.33463E-4,.3E-6,0
